     2              NAVIGATION DATA                         RINEX VERSION / TYPE
CCRINEXN V1.6.0 UX  CDDIS               24-OCT-19 02:53     PGM / RUN BY / DATE 
IGS BROADCAST EPHEMERIS FILE                                COMMENT             
    0.1211D-07  0.0000D+00 -0.1192D-06  0.0000D+00          ION ALPHA           
    0.9421D+05  0.0000D+00 -0.1966D+06  0.0000D+00          ION BETA            
   -0.931322574615D-09-0.621724893790D-14   589824     2076 DELTA-UTC: A0,A1,T,W
    18                                                      LEAP SECONDS        
                                                            END OF HEADER       
23 19 10 24  2  0  0.0-0.159703660756D-03 0.216004991671D-11 0.000000000000D+00
    0.800000000000D+02 0.214375000000D+02 0.470662462124D-08-0.215084912375D+01
    0.787898898125D-06 0.132207870483D-01 0.114832073450D-04 0.515374063110D+04
    0.352800000000D+06 0.102445483208D-06 0.273963377005D+01-0.912696123123D-07
    0.943699112650D+00 0.144437500000D+03-0.222371218860D+01-0.787068498848D-08
    0.465376527657D-09 0.100000000000D+01 0.207600000000D+04 0.000000000000D+00
    0.200000000000D+01 0.000000000000D+00-0.204890966415D-07 0.800000000000D+02
    0.349356000000D+06 0.400000000000D+01 0.000000000000D+00 0.000000000000D+00
24 19 10 24  2  0  0.0-0.391528010368D-05-0.568434188608D-12 0.000000000000D+00
    0.143000000000D+03 0.466562500000D+02 0.550594363037D-08-0.264745014362D+01
    0.222772359848D-05 0.889673503116D-02 0.569596886635D-05 0.515366557503D+04
    0.352800000000D+06 0.745058059692D-08-0.253065893457D+01-0.199303030968D-06
    0.937873407129D+00 0.258343750000D+03 0.612914929956D+00-0.849678249652D-08
    0.295369446180D-09 0.100000000000D+01 0.207600000000D+04 0.000000000000D+00
    0.200000000000D+01 0.000000000000D+00 0.279396772385D-08 0.143000000000D+03
    0.345618000000D+06 0.400000000000D+01 0.000000000000D+00 0.000000000000D+00
25 19 10 24  2  0  0.0-0.160438939929D-04-0.795807864051D-12 0.000000000000D+00
    0.940000000000D+02-0.331562500000D+02 0.451983112625D-08 0.168068108204D+01
   -0.175274908543D-05 0.849901209585D-02 0.858679413795D-05 0.515364471054D+04
    0.352800000000D+06-0.230967998505D-06-0.142521191144D+01-0.484287738800D-07
    0.968111123611D+00 0.218718750000D+03 0.891561492040D+00-0.813891044686D-08
   -0.577524056195D-09 0.100000000000D+01 0.207600000000D+04 0.000000000000D+00
    0.280000000000D+01 0.000000000000D+00 0.558793544769D-08 0.940000000000D+02
    0.345618000000D+06 0.400000000000D+01 0.000000000000D+00 0.000000000000D+00
26 19 10 24  2  0  0.0 0.683548860252D-04 0.852651282912D-11 0.000000000000D+00
    0.850000000000D+02-0.388125000000D+02 0.503485257896D-08 0.116176143285D+01
   -0.179372727871D-05 0.405876000877D-02 0.746361911297D-05 0.515368653679D+04
    0.352800000000D+06 0.000000000000D+00-0.145654442169D+01 0.260770320892D-07
    0.949314315963D+00 0.227031250000D+03 0.121352742692D+00-0.838499212572D-08
   -0.581809949005D-09 0.100000000000D+01 0.207600000000D+04 0.000000000000D+00
    0.200000000000D+01 0.000000000000D+00 0.745058059692D-08 0.850000000000D+02
    0.345618000000D+06 0.400000000000D+01 0.000000000000D+00 0.000000000000D+00
27 19 10 24  2  0  0.0-0.972826965153D-04-0.121644916362D-10 0.000000000000D+00
    0.710000000000D+02 0.499687500000D+02 0.390051961515D-08-0.728488879983D+00
    0.254623591900D-05 0.726868724450D-02 0.100899487734D-04 0.515366158104D+04
    0.352800000000D+06 0.134110450745D-06-0.382397317915D+00 0.819563865662D-07
    0.978826603554D+00 0.195875000000D+03 0.505727080283D+00-0.785818446778D-08
   -0.678599694973D-11 0.100000000000D+01 0.207600000000D+04 0.000000000000D+00
    0.200000000000D+01 0.000000000000D+00 0.186264514923D-08 0.710000000000D+02
    0.345618000000D+06 0.400000000000D+01 0.000000000000D+00 0.000000000000D+00
28 19 10 24  2  0  0.0 0.757928472012D-03-0.147792889038D-11 0.000000000000D+00
    0.137000000000D+03-0.147500000000D+02 0.432660879205D-08 0.472362832837D-01
   -0.759959220886D-06 0.191106830025D-01 0.908970832825D-05 0.515370512581D+04
    0.352800000000D+06-0.189989805222D-06-0.133620596399D+01-0.763684511185D-07
    0.980034660823D+00 0.220562500000D+03-0.144910540572D+01-0.827463038586D-08
   -0.532879339421D-09 0.100000000000D+01 0.207600000000D+04 0.000000000000D+00
    0.400000000000D+01 0.000000000000D+00-0.111758708954D-07 0.137000000000D+03
    0.345618000000D+06 0.400000000000D+01 0.000000000000D+00 0.000000000000D+00
29 19 10 24  2  0  0.0 0.631744042039D-04-0.101181285572D-10 0.000000000000D+00
    0.710000000000D+02 0.688125000000D+02 0.374444168531D-08-0.569346565581D+00
    0.350363552570D-05 0.111753225792D-02 0.107605010271D-04 0.515368373108D+04
    0.352800000000D+06 0.186264514923D-08-0.313978974165D+00-0.149011611938D-07
    0.986064850108D+00 0.184000000000D+03 0.206004628572D+01-0.776068040635D-08
    0.145363197818D-09 0.100000000000D+01 0.207600000000D+04 0.000000000000D+00
    0.200000000000D+01 0.000000000000D+00-0.977888703346D-08 0.710000000000D+02
    0.345618000000D+06 0.400000000000D+01 0.000000000000D+00 0.000000000000D+00
30 19 10 24  2  0  0.0-0.682063400745D-04-0.829913915368D-11 0.000000000000D+00
    0.770000000000D+02 0.345312500000D+02 0.554701676980D-08 0.265123424749D+01
    0.185705721378D-05 0.417341850698D-02 0.501796603203D-05 0.515373154068D+04
    0.352800000000D+06-0.106170773506D-06-0.243624012000D+01-0.167638063431D-07
    0.939992225992D+00 0.273781250000D+03-0.289988231823D+01-0.856928551657D-08
    0.143577409147D-09 0.100000000000D+01 0.207600000000D+04 0.000000000000D+00
    0.200000000000D+01 0.000000000000D+00 0.372529029846D-08 0.770000000000D+02
    0.345600000000D+06 0.000000000000D+00 0.000000000000D+00 0.000000000000D+00
31 19 10 24  2  0  0.0 0.161491334438D-05-0.261479726760D-11 0.000000000000D+00
    0.780000000000D+02 0.444687500000D+02 0.508699760816D-08 0.239750221896D+01
    0.238604843616D-05 0.946626614314D-02 0.531598925590D-05 0.515371335030D+04
    0.352800000000D+06-0.212341547012D-06-0.244750459653D+01 0.169500708580D-06
    0.959105742238D+00 0.278000000000D+03 0.458109636619D-01-0.833891877801D-08
    0.186436337250D-09 0.100000000000D+01 0.207600000000D+04 0.000000000000D+00
    0.200000000000D+01 0.000000000000D+00-0.135041773319D-07 0.780000000000D+02
    0.345618000000D+06 0.400000000000D+01 0.000000000000D+00 0.000000000000D+00
32 19 10 24  2  0  0.0 0.101606827229D-03 0.127329258248D-10 0.000000000000D+00
    0.380000000000D+02 0.215625000000D+01 0.451125934063D-08 0.245127167788D-01
    0.169500708580D-06 0.323721370660D-02 0.119917094708D-04 0.515364498520D+04
    0.352800000000D+06 0.204890966415D-07 0.275355817981D+01 0.186264514923D-07
    0.957099835781D+00 0.149250000000D+03-0.252755323849D+01-0.795926010656D-08
    0.321799118511D-09 0.100000000000D+01 0.207600000000D+04 0.000000000000D+00
    0.200000000000D+01 0.000000000000D+00 0.465661287308D-09 0.380000000000D+02
    0.345618000000D+06 0.400000000000D+01 0.000000000000D+00 0.000000000000D+00
 2 19 10 24  3 59 44.0-0.332249328494D-03-0.784439180279D-11 0.000000000000D+00
    0.190000000000D+02 0.275312500000D+02 0.491556189574D-08-0.158526964537D+01
    0.177882611752D-05 0.192687956151D-01 0.289827585220D-05 0.515355730438D+04
    0.359984000000D+06 0.257045030594D-06 0.600577015346D+00 0.379979610443D-06
    0.956575675159D+00 0.322625000000D+03-0.170603754267D+01-0.848321050262D-08
    0.136077096729D-09 0.100000000000D+01 0.207600000000D+04 0.000000000000D+00
    0.200000000000D+01 0.000000000000D+00-0.176951289177D-07 0.190000000000D+02
    0.359070000000D+06 0.000000000000D+00 0.000000000000D+00 0.000000000000D+00
 8 19 10 24  3 59 44.0-0.109570100904D-04-0.136424205266D-11 0.000000000000D+00
    0.360000000000D+02 0.457812500000D+02 0.415338729097D-08 0.522225751884D+00
    0.229850411415D-05 0.457419559825D-02 0.105407088995D-04 0.515357766151D+04
    0.359984000000D+06 0.763684511185D-07-0.394992859712D+00-0.242143869400D-07
    0.970475839986D+00 0.179062500000D+03-0.237613329412D+00-0.792568727955D-08
   -0.892894335490D-11 0.100000000000D+01 0.207600000000D+04 0.000000000000D+00
    0.200000000000D+01 0.000000000000D+00 0.512227416039D-08 0.360000000000D+02
    0.355368000000D+06 0.400000000000D+01 0.000000000000D+00 0.000000000000D+00
23 19 10 24  3 59 44.0-0.159687828273D-03 0.216004991671D-11 0.000000000000D+00
    0.180000000000D+02 0.117812500000D+02 0.468483799945D-08-0.110293346508D+01
    0.821426510811D-06 0.132209894946D-01 0.113081187010D-04 0.515374328232D+04
    0.359984000000D+06 0.225380063057D-06 0.273957761886D+01 0.216066837311D-06
    0.943700996889D+00 0.150093750000D+03-0.222382131497D+01-0.813105297671D-08
    0.305012705003D-09 0.100000000000D+01 0.207600000000D+04 0.000000000000D+00
    0.200000000000D+01 0.000000000000D+00-0.204890966415D-07 0.180000000000D+02
    0.352818000000D+06 0.400000000000D+01 0.000000000000D+00 0.000000000000D+00
25 19 10 24  3 59 44.0-0.160499475896D-04-0.795807864051D-12 0.000000000000D+00
    0.160000000000D+02-0.280625000000D+02 0.445375694542D-08 0.272867251255D+01
   -0.155158340931D-05 0.849944562651D-02 0.883452594280D-05 0.515364262772D+04
    0.359984000000D+06 0.186264514923D-08-0.142526959576D+01-0.158324837685D-06
    0.968108194849D+00 0.211000000000D+03 0.891435688400D+00-0.790175771135D-08
   -0.549665752928D-09 0.100000000000D+01 0.207600000000D+04 0.000000000000D+00
    0.200000000000D+01 0.000000000000D+00 0.558793544769D-08 0.160000000000D+02
    0.352818000000D+06 0.400000000000D+01 0.000000000000D+00 0.000000000000D+00
